QIANFAN-73              
1 63159U 25046A   25355.41904976  .00000108  00000+0  14786-3 0  9998
2 63159  88.9769 319.1241 0016874  96.7156 263.5916 13.50979048 48587
QIANFAN-74              
1 63160U 25046B   25355.47650022  .00000094  00000+0  12671-3 0  9991
2 63160  88.9770 319.0070 0002027  74.8937 285.2438 13.50975816 48656
QIANFAN-75              
1 63161U 25046C   25355.46378422  .00000145  00000+0  20614-3 0  9995
2 63161  88.9771 319.2420 0017968  99.3213 260.9971 13.50981153 48527
QIANFAN-76              
1 63162U 25046D   25355.46043252  .00000155  00000+0  22076-3 0  9991
2 63162  88.9770 319.2230 0015521  99.5010 260.7896 13.50981624 48534
QIANFAN-77              
1 63163U 25046E   25355.42983647  .00000298  00000+0  20724-3 0  9995
2 63163  88.9771 317.1618 0016867  57.1398 303.1399 13.96094118 49664
QIANFAN-78              
1 63164U 25046F   25355.42725185  .00000106  00000+0  14587-3 0  9995
2 63164  88.9769 319.0903 0016860 101.7794 258.5249 13.50979379 48600
QIANFAN-79              
1 63165U 25046G   25355.45590267  .00000117  00000+0  16258-3 0  9999
2 63165  88.9773 319.1952 0016583 100.1182 260.1841 13.50981097 48558
QIANFAN-80              
1 63166U 25046H   25355.47243429  .00000125  00000+0  17526-3 0  9995
2 63166  88.9771 318.9001 0015489 103.6592 256.6285 13.50979051 48713
